0 SL-8 R/B
1 09738U 77004B   13282.51147902  .00000119  00000-0  11113-3 0  7348
2 09738 082.9582 295.5609 0017420 056.7076 107.0390 13.73532705840024
0 SL-8 R/B
1 09738U 77004B   13284.54042215  .00000179  00000-0  17623-3 0  7353
2 09738 082.9580 294.0650 0017316 051.4745 059.1800 13.73533789840308
0 SL-8 R/B
1 09738U 77004B   13286.65844921  .00000177  00000-0  17321-3 0  7365
2 09738 082.9578 292.5031 0017205 045.8347 091.9795 13.73534632840599
0 SL-8 R/B
1 09738U 77004B   13289.12054615  .00000169  00000-0  16455-3 0  7372
2 09738 082.9580 290.6872 0017075 039.2215 026.1320 13.73535935840939
0 SL-8 R/B
1 09738U 77004B   13291.15653574  .00000158  00000-0  15366-3 0  7386
2 09738 082.9583 289.1856 0016942 033.7506 013.3530 13.73536351841217
0 SL-8 R/B
1 09738U 77004B   13293.49931258  .00000189  00000-0  18700-3 0  7393
2 09738 082.9586 287.4578 0016823 027.4242 077.5605 13.73536838841537
0 SL-8 R/B
1 09738U 77004B   13295.61836382  .00000217  00000-0  21715-3 0  7405
2 09738 082.9586 285.8953 0016643 021.6015 115.6290 13.73537481841821
